{"fetched_at":"2026-03-30T13:17:50Z","count":15418,"tles":[{"name":"STARLINK-35692","line1":"1 66513U 25263AE  26087.82540728  .00025248  00000+0  92315-3 0  9991","line2":"2 66513  43.0000 242.7770 0001736 281.5493  78.5163 15.27605561 21829","category":"Starlink"}]}